NORAD_CAT_ID,OBJECT_NAME,OBJECT_TYPE,EPOCH,MEAN_MOTION,ECCENTRICITY,INCLINATION,RA_OF_ASC_NODE,ARG_OF_PERICENTER,MEAN_ANOMALY,BSTAR,MEAN_MOTION_DOT,MEAN_MOTION_DDOT,TLE_LINE0,TLE_LINE1,TLE_LINE2,SEMIMAJOR_AXIS,PERIOD,APOGEE,PERIGEE,DECAYED
56471.0,STARLINK-5521,PAYLOAD,2023-12-24 09:47:33,14.98313568,0.0002884,70.0009,357.4765,265.7383,94.3446,0.00031915,3.715e-05,0.0,0 STARLINK-5521,1 56471U 23064Z   23358.40802820  .00003715  00000-0  31915-3 0  9991,2 56471  70.0009 357.4765 0002884 265.7383  94.3446 14.98313568 34964,6950.244,96.108,574.113,570.104,0.0
56471.0,STARLINK-5521,PAYLOAD,2023-12-25 03:25:01,14.98331518,0.0002652,70.0009,355.6254,259.5695,100.5166,2.4763e-05,2.03e-06,0.0,0 STARLINK-5521,1 56471U 23064Z   23359.14238386  .00000203  00000-0  24763-4 0  9996,2 56471  70.0009 355.6254 0002652 259.5695 100.5166 14.98331518 35434,6950.188,96.107,573.896,570.21,0.0
56471.0,STARLINK-5521,PAYLOAD,2023-12-25 09:49:34,14.98331737,0.0002651,70.0009,354.952,259.7141,100.3719,2.5584e-05,2.12e-06,0.0,0 STARLINK-5521,1 56471U 23064Z   23359.40942340  .00000212  00000-0  25584-4 0  9999,2 56471  70.0009 354.9520 0002651 259.7141 100.3719 14.98331737 35119,6950.188,96.107,573.895,570.21,0.0
56471.0,STARLINK-5521,PAYLOAD,2023-12-26 03:27:03,14.98329393,0.0002681,70.0009,353.1009,261.4872,98.5984,-2.3654e-05,-3.75e-06,0.0,0 STARLINK-5521,1 56471U 23064Z   23360.14378582 -.00000375  00000-0 -23654-4 0  9991,2 56471  70.0009 353.1009 0002681 261.4872  98.5984 14.98329393 35584,6950.195,96.107,573.923,570.196,0.0
56471.0,STARLINK-5521,PAYLOAD,2023-12-26 09:51:35,14.98328471,0.0002705,70.0009,352.4273,263.0304,97.0548,-3.2593e-05,-4.82e-06,0.0,0 STARLINK-5521,1 56471U 23064Z   23360.41082681 -.00000482  00000-0 -32593-4 0  9994,2 56471  70.0009 352.4273 0002705 263.0304  97.0548 14.98328471 35265,6950.198,96.107,573.943,570.183,0.0
56471.0,STARLINK-5521,PAYLOAD,2023-12-26 22:40:39,14.98332359,0.0002759,70.0007,351.0802,265.5957,94.4887,-3.998e-06,-1.41e-06,0.0,0 STARLINK-5521,1 56471U 23064Z   23360.94490328 -.00000141  00000-0 -39980-5 0  9993,2 56471  70.0007 351.0802 0002759 265.5957  94.4887 14.98332359 35342,6950.186,96.107,573.968,570.133,0.0
56471.0,STARLINK-5521,PAYLOAD,2023-12-27 03:29:03,14.98331683,0.0002762,70.0007,350.5749,266.2118,93.8725,-8.5582e-06,-1.95e-06,0.0,0 STARLINK-5521,1 56471U 23064Z   23361.14518357 -.00000195  00000-0 -85582-5 0  9997,2 56471  70.0007 350.5749 0002762 266.2118  93.8725 14.98331683 35733,6950.188,96.107,573.972,570.133,0.0
56471.0,STARLINK-5521,PAYLOAD,2023-12-27 09:53:35,14.98334415,0.0002713,70.0008,349.9016,265.998,94.0869,2.5878e-05,2.16e-06,0.0,0 STARLINK-5521,1 56471U 23064Z   23361.41222042  .00000216  00000-0  25878-4 0  9993,2 56471  70.0008 349.9016 0002713 265.9980  94.0869 14.98334415 35415,6950.179,96.107,573.93,570.159,0.0
56471.0,STARLINK-5521,PAYLOAD,2023-12-27 22:42:40,14.98328948,0.0002666,70.0009,348.5551,267.6735,92.4118,3.2371e-05,2.93e-06,0.0,0 STARLINK-5521,1 56471U 23064Z   23361.94630283  .00000293  00000-0  32371-4 0  9992,2 56471  70.0009 348.5551 0002666 267.6735  92.4118 14.98328948 35490,6950.196,96.107,573.914,570.208,0.0
56471.0,STARLINK-5521,PAYLOAD,2023-12-28 03:31:04,14.98325766,0.0002652,70.0009,348.0501,260.8938,99.1921,2.0771e-05,1.55e-06,0.0,0 STARLINK-5521,1 56471U 23064Z   23362.14658507  .00000155  00000-0  20771-4 0  9992,2 56471  70.0009 348.0501 0002652 260.8938  99.1921 14.98325766 35889,6950.206,96.107,573.914,570.228,0.0
56471.0,STARLINK-5521,PAYLOAD,2023-12-28 08:19:29,14.98333571,0.000246,70.0009,347.5451,259.8863,100.2019,-0.00011769,-1.497e-05,0.0,0 STARLINK-5521,1 56471U 23064Z   23362.34686395 -.00001497  00000-0 -11769-3 0  9998,2 56471  70.0009 347.5451 0002460 259.8863 100.2019 14.98333571 35558,6950.182,96.107,573.757,570.337,0.0
56471.0,STARLINK-5521,PAYLOAD,2023-12-28 22:44:41,14.98330396,0.0002702,70.0009,346.0301,262.5482,97.537,-1.9225e-05,-3.22e-06,0.0,0 STARLINK-5521,1 56471U 23064Z   23362.94770352 -.00000322  00000-0 -19225-4 0  9993,2 56471  70.0009 346.0301 0002702 262.5482  97.5370 14.98330396 35643,6950.192,96.107,573.935,570.179,0.0
56471.0,STARLINK-5521,PAYLOAD,2023-12-29 03:33:05,14.98327917,0.0003028,70.0006,345.5254,270.0827,89.9985,-2.1047e-05,-3.44e-06,0.0,0 STARLINK-5521,1 56471U 23064Z   23363.14798546 -.00000344  00000-0 -21047-4 0  9990,2 56471  70.0006 345.5254 0003028 270.0827  89.9985 14.98327917 36036,6950.199,96.107,574.169,569.96,0.0
56471.0,STARLINK-5521,PAYLOAD,2023-12-29 08:21:29,14.98329591,0.0002796,70.0007,345.0202,265.097,94.987,-4.2729e-06,-1.44e-06,0.0,0 STARLINK-5521,1 56471U 23064Z   23363.34826357 -.00000144  00000-0 -42729-5 0  9993,2 56471  70.0007 345.0202 0002796 265.0970  94.9870 14.98329591 35701,6950.194,96.107,574.002,570.116,0.0
56471.0,STARLINK-5521,PAYLOAD,2023-12-30 03:35:06,14.98327454,0.0002858,70.001,343.0011,265.5313,94.552,3.7446e-05,3.54e-06,0.0,0 STARLINK-5521,1 56471U 23064Z   23364.14938350  .00000354  00000-0  37446-4 0  9999,2 56471  70.0010 343.0011 0002858 265.5313  94.5520 14.98327454 36183,6950.201,96.107,574.052,570.079,0.0
56471.0,STARLINK-5521,PAYLOAD,2023-12-30 08:23:30,14.98328255,0.0002924,70.0011,342.4968,265.4564,94.6261,4.268e-05,4.16e-06,0.0,0 STARLINK-5521,1 56471U 23064Z   23364.34966299  .00000416  00000-0  42680-4 0  9999,2 56471  70.0011 342.4968 0002924 265.4564  94.6261 14.98328255 35855,6950.198,96.107,574.096,570.031,0.0
56471.0,STARLINK-5521,PAYLOAD,2023-12-30 22:48:43,14.9832899,0.0002768,70.0009,340.981,262.5664,97.5181,1.7585e-05,1.17e-06,0.0,0 STARLINK-5521,1 56471U 23064Z   23364.95050296  .00000117  00000-0  17585-4 0  9991,2 56471  70.0009 340.9810 0002768 262.5664  97.5181 14.98328990 35945,6950.196,96.107,573.985,570.137,0.0
56471.0,STARLINK-5521,PAYLOAD,2023-12-31 03:37:07,14.98328394,0.000279,70.0009,340.4761,263.0265,97.0577,7.676e-06,-1e-08,0.0,0 STARLINK-5521,1 56471U 23064Z   23365.15078369 -.00000001  00000-0  76760-5 0  9999,2 56471  70.0009 340.4761 0002790 263.0265  97.0577 14.98328394 36339,6950.198,96.107,574.002,570.124,0.0
56471.0,STARLINK-5521,PAYLOAD,2023-12-31 08:25:31,14.98330021,0.0002917,70.0006,339.971,268.2873,91.7952,2.0078e-05,1.47e-06,0.0,0 STARLINK-5521,1 56471U 23064Z   23365.35106262  .00000147  00000-0  20078-4 0  9995,2 56471  70.0006 339.9710 0002917 268.2873  91.7952 14.98330021 36008,6950.193,96.107,574.085,570.03,0.0
56471.0,STARLINK-5521,PAYLOAD,2024-01-01 03:39:08,14.98327829,0.0002817,70.0009,337.9509,268.9741,91.1096,1.0226e-05,2.9e-07,0.0,0 STARLINK-5521,1 56471U 23064Z   24001.15218439  .00000029  00000-0  10226-4 0  9994,2 56471  70.0009 337.9509 0002817 268.9741  91.1096 14.98327829 36482,6950.2,96.107,574.022,570.107,0.0
56471.0,STARLINK-5521,PAYLOAD,2024-01-01 08:27:32,14.98328528,0.0002876,70.0009,337.4454,271.702,88.381,4.14e-05,4.01e-06,0.0,0 STARLINK-5521,1 56471U 23064Z   24001.35246330  .00000401  00000-0  41400-4 0  9999,2 56471  70.0009 337.4454 0002876 271.7020  88.3810 14.98328528 36156,6950.197,96.107,574.061,570.064,0.0
56471.0,STARLINK-5521,PAYLOAD,2024-01-01 22:52:45,14.98363261,0.0002818,70.0009,335.9297,268.4649,91.6188,-0.00049672,-6.02e-05,0.0,0 STARLINK-5521,1 56471U 23064Z   24001.95329930 -.00006020  00000-0 -49672-3 0  9996,2 56471  70.0009 335.9297 0002818 268.4649  91.6188 14.98363261 36248,6950.09,96.105,573.914,569.997,0.0
56471.0,STARLINK-5521,PAYLOAD,2024-01-02 03:41:08,14.98370851,0.0002703,70.0007,335.4253,263.8109,96.2742,-0.00064644,-7.806e-05,0.0,0 STARLINK-5521,1 56471U 23064Z   24002.15357516 -.00007806  00000-0 -64644-3 0  9999,2 56471  70.0007 335.4253 0002703 263.8109  96.2742 14.98370851 36639,6950.067,96.104,573.81,570.053,0.0
56471.0,STARLINK-5521,PAYLOAD,2024-01-02 06:53:25,14.98333142,0.0002648,70.0016,335.0907,252.2784,107.8086,5.2438e-05,5.33e-06,0.0,0 STARLINK-5521,1 56471U 23064Z   24002.28709811  .00000533  00000-0  52438-4 0  9999,2 56471  70.0016 335.0907 0002648 252.2784 107.8086 14.98333142 36654,6950.183,96.107,573.889,570.208,0.0
56471.0,STARLINK-5521,PAYLOAD,2024-01-02 21:18:37,14.9833198,0.0002094,70.0025,333.5763,254.3421,105.7507,9.0413e-05,9.86e-06,0.0,0 STARLINK-5521,1 56471U 23064Z   24002.88793722  .00000986  00000-0  90413-4 0  9996,2 56471  70.0025 333.5763 0002094 254.3421 105.7507 14.98331980 36386,6950.187,96.107,573.507,570.596,0.0
56471.0,STARLINK-5521,PAYLOAD,2024-01-03 03:43:10,14.98325379,0.000272,70.0014,332.9015,264.276,95.8089,-2.6925e-05,-4.14e-06,0.0,0 STARLINK-5521,1 56471U 23064Z   24003.15498437 -.00000414  00000-0 -26925-4 0  9997,2 56471  70.0014 332.9015 0002720 264.2760  95.8089 14.98325379 36782,6950.207,96.107,573.963,570.182,0.0
56471.0,STARLINK-5521,PAYLOAD,2024-01-03 06:55:26,14.98325631,0.0002605,70.0016,332.5649,261.1295,98.9569,-4.6265e-06,-1.48e-06,0.0,0 STARLINK-5521,1 56471U 23064Z   24003.28850368 -.00000148  00000-0 -46265-5 0  9990,2 56471  70.0016 332.5649 0002605 261.1295  98.9569 14.98325631 36445,6950.206,96.107,573.882,570.261,0.0
56471.0,STARLINK-5521,PAYLOAD,2024-01-03 22:56:47,14.98330333,0.0002676,70.0011,330.8811,253.8561,106.2303,-3.4358e-05,-5.03e-06,0.0,0 STARLINK-5521,1 56471U 23064Z   24003.95610105 -.00000503  00000-0 -34358-4 0  9991,2 56471  70.0011 330.8811 0002676 253.8561 106.2303 14.98330333 36549,6950.192,96.107,573.917,570.197,0.0
56471.0,STARLINK-5521,PAYLOAD,2024-01-04 03:45:11,14.98314661,0.0002992,70.0008,330.3758,265.1667,94.9151,0.0002069,2.376e-05,0.0,0 STARLINK-5521,1 56471U 23064Z   24004.15638431  .00002376  00000-0  20690-3 0  9997,2 56471  70.0008 330.3758 0002992 265.1667  94.9151 14.98314661 36937,6950.24,96.108,574.185,570.026,0.0
56471.0,STARLINK-5521,PAYLOAD,2024-01-04 05:21:19,14.98331432,0.0002794,70.001,330.2079,261.7356,98.3487,-2.2523e-05,-3.62e-06,0.0,0 STARLINK-5521,1 56471U 23064Z   24004.22314014 -.00000362  00000-0 -22523-4 0  9996,2 56471  70.0010 330.2079 0002794 261.7356  98.3487 14.98331432 36948,6950.188,96.107,573.995,570.112,0.0
